GPS BIIR-2  (PRN 13)    
1 24876C 97035A   22215.69756944 -.00000000  00000-0  00000-0 0  2155
2 24876  55.5167 153.8317 0060451  51.3874 287.5770  2.00563010    14
GPS BIIR-4  (PRN 20)    
1 26360C 00025A   22215.69756944 -.00000000  00000-0  00000-0 0  2158
2 26360  54.0953  76.9162 0047723 184.2639 244.5494  2.00568806    10
GPS BIIR-6  (PRN 22)    
1 26605C 00071A   22215.69756944 -.00000000  00000-0  00000-0 0  2151
2 26605  55.1008 150.8041 0136657 254.5735 301.6635  2.00557580    15
GPS BIIR-8  (PRN 16)    
1 27663C 03005A   22215.69756944  .00000000  00000-0  00000-0 0  2155
2 27663  55.4808 271.1866 0125417  41.0592   6.4866  2.00561965    13
GPS BIIR-9  (PRN 21)    
1 27704C 03010A   22215.69756944 -.00000000  00000-0  00000-0 0  2158
2 27704  55.0415  21.3959 0244262 307.2736 315.9192  2.00558337    13
GPS BIIR-11 (PRN 19)    
1 28190C 04009A   22215.69756944  .00000000  00000-0  00000-0 0  2156
2 28190  55.9761 332.1809 0090513 123.2139  79.3691  2.00559471    19
GPS BIIR-13 (PRN 02)    
1 28474C 04045A   22215.69756944 -.00000000  00000-0  00000-0 0  2152
2 28474  55.3678  21.5509 0201489 279.5706 183.2748  2.00423607    11
GPS BIIRM-1 (PRN 17)    
1 28874C 05038A   22215.69756944  .00000000  00000-0  00000-0 0  2158
2 28874  56.0401 329.6175 0138253 274.6019 312.5937  2.00573462    11
GPS BIIRM-2 (PRN 31)    
1 29486C 06042A   22215.69756944  .00000000  00000-0  00000-0 0  2154
2 29486  54.7122 207.3961 0104083  22.2693 117.8906  2.00550443    16
GPS BIIRM-3 (PRN 12)    
1 29601C 06052A   22215.69756944  .00000000  00000-0  00000-0 0  2154
2 29601  55.4891 270.1265 0082801  74.8559 109.2188  2.00553803    18
GPS BIIRM-4 (PRN 15)    
1 32260C 07047A   22215.69756944 -.00000000  00000-0  00000-0 0  2155
2 32260  53.3260 138.5877 0141568  63.3559 256.5191  2.00571880    10
GPS BIIRM-5 (PRN 29)    
1 32384C 07062A   22215.69756944  .00000000  00000-0  00000-0 0  2158
2 32384  56.1605 330.3847 0021145 141.2767 306.4550  2.00564724    18
GPS BIIRM-6 (PRN 07)    
1 32711C 08012A   22215.69756944  .00000000  00000-0  00000-0 0  2158
2 32711  54.4728 206.3203 0165369 231.6426 146.5289  2.00566583    17
GPS BIIRM-8 (PRN 05)    
1 35752C 09043A   22215.69756944 -.00000000  00000-0  00000-0 0  2152
2 35752  55.1061  83.6274 0059135  60.6866 333.2700  2.00553027    10
GPS BIIF-1  (PRN 25)    
1 36585C 10022A   22215.69756944  .00000000  00000-0  00000-0 0  2155
2 36585  54.7739 265.6124 0102603  56.8520  96.2700  2.00567904    16
GPS BIIF-2  (PRN 01)    
1 37753C 11036A   22215.69756944 -.00000000  00000-0  00000-0 0  2150
2 37753  56.6270  26.8667 0118487  52.9985 184.5210  2.00565659    15
GPS BIIF-3  (PRN 24)    
1 38833C 12053A   22215.69756944  .00000000  00000-0  00000-0 0  2159
2 38833  53.5286 201.4162 0125717  46.5386 203.3875  2.00562534    13
GPS BIIF-4  (PRN 27)    
1 39166C 13023A   22215.69756944  .00000000  00000-0  00000-0 0  2157
2 39166  55.6655 325.9716 0103990  38.6475 313.2642  2.00565608    11
GPS BIIF-5  (PRN 30)    
1 39533C 14008A   22215.69756944  .00000000  00000-0  00000-0 0  2159
2 39533  53.6215 206.9273 0060652 209.7727 140.3360  2.00556393    10
GPS BIIF-6  (PRN 06)    
1 39741C 14026A   22215.69756944 -.00000000  00000-0  00000-0 0  2151
2 39741  56.5880  26.3924 0026183 306.3236 200.6380  2.00552766    10
GPS BIIF-7  (PRN 09)    
1 40105C 14045A   22215.69756944 -.00000000  00000-0  00000-0 0  2158
2 40105  54.7017 144.9193 0020974 110.9175 337.0739  2.00550294    13
GPS BIIF-8  (PRN 03)    
1 40294C 14068A   22215.69756944 -.00000000  00000-0  00000-0 0  2152
2 40294  55.8499  86.0705 0042368  56.8472 122.0266  2.00574786    11
GPS BIIF-9  (PRN 26)    
1 40534C 15013A   22215.69756944  .00000000  00000-0  00000-0 0  2159
2 40534  53.6749 262.7395 0069473  20.1611  55.8174  2.00549639    15
GPS BIIF-10 (PRN 08)    
1 40730C 15033A   22215.69756944  .00000000  00000-0  00000-0 0  2159
2 40730  55.1627 324.7782 0073687   7.9042 311.9069  2.00575905    11
GPS BIIF-11 (PRN 10)    
1 41019C 15062A   22215.69756944 -.00000000  00000-0  00000-0 0  2153
2 41019  55.8379  85.9143 0078916 217.5933  68.3044  2.00562567    14
GPS BIIF-12 (PRN 32)    
1 41328C 16007A   22215.69756944 -.00000000  00000-0  00000-0 0  2156
2 41328  54.9178 145.6024 0062283 230.5830 350.6963  2.00568476    19
GPS BIII-1  (PRN 04)    
1 43873C 18109A   22215.69756944 -.00000000  00000-0  00000-0 0  2158
2 43873  55.0977 148.0311 0019495 192.0818 285.2662  2.00552374    15
GPS BIII-2  (PRN 18)    
1 44506C 19056A   22215.69756944 -.00000000  00000-0  00000-0 0  2154
2 44506  55.7005  27.1716 0026343 178.1524 198.6802  2.00557832    10
GPS BIII-3  (PRN 23)    
1 45854C 20041A   22215.69756944 -.00000000  00000-0  00000-0 0  2157
2 45854  55.5566  84.4410 0024297 176.7774 136.5227  2.00558218    12
GPS BIII-4  (PRN 14)    
1 46826C 20078A   22215.69756944  .00000000  00000-0  00000-0 0  2156
2 46826  54.5371 268.1801 0022026 190.2457  99.2653  2.00565221    17
GPS BIII-5  (PRN 11)    
1 48859C 21054A   22215.69756944 -.00000000  00000-0  00000-0 0  2150
2 48859  55.2074  29.1483 0006110 190.3607 283.6791  2.00570856    10
